[{"OBJECT_NAME":"STARLINK-35007","OBJECT_ID":"2025-184Q","EPOCH":"2026-03-09T17:28:53.162112","MEAN_MOTION":15.05651077,"ECCENTRICITY":9.889e-5,"INCLINATION":97.6019,"RA_OF_ASC_NODE":122.6525,"ARG_OF_PERICENTER":88.6309,"MEAN_ANOMALY":271.5031,"EPHEMERIS_TYPE":0,"CLASSIFICATION_TYPE":"U","NORAD_CAT_ID":65287,"ELEMENT_SET_NO":999,"REV_AT_EPOCH":3124,"BSTAR":0.00017312166,"MEAN_MOTION_DOT":2.438e-5,"MEAN_MOTION_DDOT":0},{"OBJECT_NAME":"CZ-2D DEB","OBJECT_ID":"2017-060C","EPOCH":"2026-03-09T12:36:22.356864","MEAN_MOTION":15.07716497,"ECCENTRICITY":0.0018685,"INCLINATION":98.2453,"RA_OF_ASC_NODE":267.9231,"ARG_OF_PERICENTER":71.2095,"MEAN_ANOMALY":289.1156,"EPHEMERIS_TYPE":0,"CLASSIFICATION_TYPE":"U","NORAD_CAT_ID":44610,"ELEMENT_SET_NO":999,"REV_AT_EPOCH":45422,"BSTAR":0.00057216024,"MEAN_MOTION_DOT":8.702e-5,"MEAN_MOTION_DDOT":0}]
